IRIDIUM 171             
1 43929U 19002H   25059.71216025  .00000685  00000+0  23742-3 0  9993
2 43929  86.4036 191.6798 0001713  83.9695 276.1696 14.34215873321099
IRIDIUM 170             
1 43930U 19002J   25060.38178641  .00002677  00000+0  42052-3 0  9999
2 43930  86.6116 191.1708 0002906  97.2121 262.9426 14.72249454329697
IRIDIUM 167             
1 43931U 19002K   25059.70581235  .00000616  00000+0  21301-3 0  9996
2 43931  86.4026 191.4469 0002141  83.1043 277.0396 14.34223519321092
IRIDIUM 181             
1 56726U 23068S   25059.86402624  .00000342  00000+0  95620-4 0  9992
2 56726  86.4454 254.4788 0001954  76.5895 283.5524 14.43305806 94169
IRIDIUM 177             
1 56727U 23068T   25059.77333551  .00004345  00000+0  56824-3 0  9994
2 56727  86.2024 193.5385 0002427  88.5662 271.5837 14.80226791 96339
IRIDIUM 174             
1 56728U 23068U   25060.44391579  .00002654  00000+0  34593-3 0  9995
2 56728  86.2037 193.3448 0002087  99.8390 260.3067 14.80214827 96436
IRIDIUM 178             
1 56729U 23068V   25060.50608434  .00000492  00000+0  61299-4 0  9996
2 56729  86.5775 222.9305 0001081  86.0942 274.0403 14.80219356 96443
IRIDIUM 179             
1 56730U 23068W   25059.75705204  .00001465  00000+0  18940-3 0  9991
2 56730  86.6769 230.6103 0001963  94.2406 265.9040 14.80238898 96332
